NOAA 1 [-]              
1 04793U 70106A   19051.84831396 -.00000035  00000-0  58658-4 0  9990
2 04793 101.7187 121.8797 0032166 153.7733 318.0707 12.53988624205597
NOAA 2 (ITOS-D) [-]     
1 06235U 72082A   19051.85107236 -.00000048  00000-0 -19356-4 0  9995
2 06235 101.7794  19.2343 0003736 242.0008 132.3308 12.53111230120084
NOAA 3 [-]              
1 06920U 73086A   19051.87188955 -.00000055  00000-0 -73880-4 0  9990
2 06920 102.0351  22.2142 0006683  14.3335  13.3796 12.40345121 50452
NOAA 4 [-]              
1 07529U 74089A   19051.92596859 -.00000047  00000-0 -15587-4 0  9993
2 07529 101.7371  20.9083 0008571 274.3848 112.4289 12.53125979 24663
NOAA 5 [-]              
1 09057U 76077A   19051.93339860 -.00000054  00000-0 -79097-4 0  9992
2 09057 101.9166  26.0114 0009618 225.2345 153.4425 12.37756272923716
TIROS N [P]             
1 11060U 78096A   19051.78198501  .00000013  00000-0  27700-4 0  9997
2 11060  98.8079 110.1431 0010946  31.8571 328.3264 14.18224498299716
NOAA 6 [P]              
1 11416U 79057A   19051.94170731  .00000010  00000-0  19640-4 0  9994
2 11416  98.6313  46.3171 0009418 232.1626 127.8706 14.33517671 67799
NOAA 7 [-]              
1 12553U 81059A   19051.95619988 -.00000033  00000-0  70241-5 0  9996
2 12553  99.0969  56.5638 0010834 320.4412 100.1731 14.17254310946049
NOAA 8 [-]              
1 13923U 83022A   19051.95170961 -.00000019  00000-0  95947-5 0  9997
2 13923  98.5719  39.2330 0015570 157.1859 203.0017 14.28665692869277
NOAA 9 [P]              
1 15427U 84123A   19051.86885056 -.00000016  00000-0  14414-4 0  9995
2 15427  98.8788   1.0933 0015167  14.4360  48.3200 14.16060028764993
NOAA 10 [-]             
1 16969U 86073A   19051.95344594 -.00000020  00000-0  89157-5 0  9992
2 16969  98.4751  51.9078 0011012 272.3595 147.8993 14.28063941687779
NOAA 11 [-]             
1 19531U 88089A   19051.93994138 -.00000017  00000-0  12393-4 0  9995
2 19531  98.4647  92.2846 0012282  75.7177 284.5360 14.15237194569318
NOAA 12 [-]             
1 21263U 91032A   19051.95867925 -.00000011  00000-0  13151-4 0  9994
2 21263  98.5241  70.5739 0012569 288.9340  71.0477 14.25886360443935
NOAA 13 [-]             
1 22739U 93050A   19051.95909309 -.00000024  00000-0  92057-5 0  9995
2 22739  98.4843  80.9809 0008981 212.3374 147.7249 14.12723730315859
NOAA 14 [-]             
1 23455U 94089A   19051.91006394 -.00000002  00000-0  20920-4 0  9997
2 23455  98.6131 117.5166 0009179 195.7399 164.3491 14.14126628245335
NOAA 15 [B]             
1 25338U 98030A   19051.95067402  .00000003  00000-0  20137-4 0  9990
2 25338  98.7568  73.3693 0009829 220.6490 139.3957 14.25895477 80218
NOAA 16 [-]             
1 26536U 00055A   19051.91460216  .00000001  00000-0  23982-4 0  9996
2 26536  98.7882 126.0571 0010828  25.0711 335.0985 14.13223205246089
NOAA 17 [-]             
1 27453U 02032A   19051.94158984  .00000000  00000-0  18309-4 0  9997
2 27453  98.5228   5.6598 0011183 200.2364 159.8374 14.25032688866164
NOAA 18 [B]             
1 28654U 05018A   19051.90051436  .00000072  00000-0  63995-4 0  9998
2 28654  99.1137  97.0084 0014927 146.3731 213.8391 14.12405241708795
NOAA 19 [+]             
1 33591U 09005A   19051.94768065  .00000028  00000-0  40541-4 0  9994
2 33591  99.1714  40.2738 0013849 352.9179   7.1794 14.12335284517025
SUOMI NPP [+]           
1 37849U 11061A   19052.34658394 -.00000162  00000-0 -55978-4 0  9998
2 37849  98.7239 352.1832 0000909 122.5027 237.6265 14.19556971379224
NOAA 20 [+]             
1 43013U 17073A   19051.95909268 -.00000007  00000-0  17703-4 0  9993
2 43013  98.7517 351.9060 0000679  88.4217 271.7036 14.19539640 65207
